CCSDS_OMM_VERS = 2.0
CREATION_DATE  = 
ORIGINATOR     = 

OBJECT_NAME    = STARLINK-36040
OBJECT_ID      = 2025-270AC
CENTER_NAME    = EARTH
REF_FRAME      = TEME
TIME_SYSTEM    = UTC
MEAN_ELEMENT_THEORY = SGP/SGP4

EPOCH          = 2025-12-06T06:00:02.000160
MEAN_MOTION    = 15.69880644
ECCENTRICITY   = .00017752
INCLINATION    = 42.9990
RA_OF_ASC_NODE = 230.9454
ARG_OF_PERICENTER = 274.1999
MEAN_ANOMALY   = 98.5210

EPHEMERIS_TYPE = 0
CLASSIFICATION_TYPE = U
NORAD_CAT_ID   = 66614
ELEMENT_SET_NO = 999
REV_AT_EPOCH   = 319
BSTAR          = -.17262202E-1
MEAN_MOTION_DOT = -.1890086E-1
MEAN_MOTION_DDOT = 0

CCSDS_OMM_VERS = 2.0
CREATION_DATE  = 
ORIGINATOR     = 

OBJECT_NAME    = STARLINK-35988
OBJECT_ID      = 2025-270AD
CENTER_NAME    = EARTH
REF_FRAME      = TEME
TIME_SYSTEM    = UTC
MEAN_ELEMENT_THEORY = SGP/SGP4

EPOCH          = 2025-12-06T06:00:02.000160
MEAN_MOTION    = 15.69882937
ECCENTRICITY   = .00018171
INCLINATION    = 42.9989
RA_OF_ASC_NODE = 230.9503
ARG_OF_PERICENTER = 270.3295
MEAN_ANOMALY   = 100.4703

EPHEMERIS_TYPE = 0
CLASSIFICATION_TYPE = U
NORAD_CAT_ID   = 66615
ELEMENT_SET_NO = 999
REV_AT_EPOCH   = 319
BSTAR          = -.17259082E-1
MEAN_MOTION_DOT = -.1889976E-1
MEAN_MOTION_DDOT = 0

CCSDS_OMM_VERS = 2.0
CREATION_DATE  = 
ORIGINATOR     = 

OBJECT_NAME    = STARLINK-35391
OBJECT_ID      = 2025-270AE
CENTER_NAME    = EARTH
REF_FRAME      = TEME
TIME_SYSTEM    = UTC
MEAN_ELEMENT_THEORY = SGP/SGP4

EPOCH          = 2025-12-06T06:00:02.000160
MEAN_MOTION    = 15.69886762
ECCENTRICITY   = .00017107
INCLINATION    = 42.9989
RA_OF_ASC_NODE = 230.9411
ARG_OF_PERICENTER = 269.9180
MEAN_ANOMALY   = 104.7144

EPHEMERIS_TYPE = 0
CLASSIFICATION_TYPE = U
NORAD_CAT_ID   = 66616
ELEMENT_SET_NO = 999
REV_AT_EPOCH   = 346
BSTAR          = -.17307989E-1
MEAN_MOTION_DOT = -.189492E-1
MEAN_MOTION_DDOT = 0

CCSDS_OMM_VERS = 2.0
CREATION_DATE  = 
ORIGINATOR     = 

OBJECT_NAME    = STARLINK-35940
OBJECT_ID      = 2025-271A
CENTER_NAME    = EARTH
REF_FRAME      = TEME
TIME_SYSTEM    = UTC
MEAN_ELEMENT_THEORY = SGP/SGP4

EPOCH          = 2025-12-06T06:00:02.000160
MEAN_MOTION    = 15.75024961
ECCENTRICITY   = .00015488
INCLINATION    = 53.1574
RA_OF_ASC_NODE = 218.9415
ARG_OF_PERICENTER = 87.2450
MEAN_ANOMALY   = 166.6020

EPHEMERIS_TYPE = 0
CLASSIFICATION_TYPE = U
NORAD_CAT_ID   = 66617
ELEMENT_SET_NO = 999
REV_AT_EPOCH   = 320
BSTAR          = -.78239482E-2
MEAN_MOTION_DOT = -.1068584E-1
MEAN_MOTION_DDOT = 0

CCSDS_OMM_VERS = 2.0
CREATION_DATE  = 
ORIGINATOR     = 

OBJECT_NAME    = STARLINK-35970
OBJECT_ID      = 2025-271B
CENTER_NAME    = EARTH
REF_FRAME      = TEME
TIME_SYSTEM    = UTC
MEAN_ELEMENT_THEORY = SGP/SGP4

EPOCH          = 2025-12-06T06:00:02.000160
MEAN_MOTION    = 15.74104869
ECCENTRICITY   = .00010356
INCLINATION    = 53.1581
RA_OF_ASC_NODE = 218.8283
ARG_OF_PERICENTER = 55.0097
MEAN_ANOMALY   = 252.6259

EPHEMERIS_TYPE = 0
CLASSIFICATION_TYPE = U
NORAD_CAT_ID   = 66618
ELEMENT_SET_NO = 999
REV_AT_EPOCH   = 320
BSTAR          = .1162939E-2
MEAN_MOTION_DOT = .172589E-2
MEAN_MOTION_DDOT = 0

CCSDS_OMM_VERS = 2.0
CREATION_DATE  = 
ORIGINATOR     = 

OBJECT_NAME    = STARLINK-35951
OBJECT_ID      = 2025-271C
CENTER_NAME    = EARTH
REF_FRAME      = TEME
TIME_SYSTEM    = UTC
MEAN_ELEMENT_THEORY = SGP/SGP4

EPOCH          = 2025-12-06T06:00:02.000160
MEAN_MOTION    = 15.74687643
ECCENTRICITY   = .00008211
INCLINATION    = 53.1572
RA_OF_ASC_NODE = 218.9244
ARG_OF_PERICENTER = 82.3394
MEAN_ANOMALY   = 179.4178

EPHEMERIS_TYPE = 0
CLASSIFICATION_TYPE = U
NORAD_CAT_ID   = 66619
ELEMENT_SET_NO = 999
REV_AT_EPOCH   = 320
BSTAR          = -.51830546E-2
MEAN_MOTION_DOT = -.713886E-2
MEAN_MOTION_DDOT = 0

CCSDS_OMM_VERS = 2.0
CREATION_DATE  = 
ORIGINATOR     = 

OBJECT_NAME    = STARLINK-35936
OBJECT_ID      = 2025-271D
CENTER_NAME    = EARTH
REF_FRAME      = TEME
TIME_SYSTEM    = UTC
MEAN_ELEMENT_THEORY = SGP/SGP4

EPOCH          = 2025-12-06T06:00:02.000160
MEAN_MOTION    = 15.74961168
ECCENTRICITY   = .00011987
INCLINATION    = 53.1575
RA_OF_ASC_NODE = 218.9373
ARG_OF_PERICENTER = 82.1952
MEAN_ANOMALY   = 173.6248

EPHEMERIS_TYPE = 0
CLASSIFICATION_TYPE = U
NORAD_CAT_ID   = 66620
ELEMENT_SET_NO = 999
REV_AT_EPOCH   = 320
BSTAR          = -.74926553E-2
MEAN_MOTION_DOT = -.1024955E-1
MEAN_MOTION_DDOT = 0

CCSDS_OMM_VERS = 2.0
CREATION_DATE  = 
ORIGINATOR     = 

OBJECT_NAME    = STARLINK-35847
OBJECT_ID      = 2025-271E
CENTER_NAME    = EARTH
REF_FRAME      = TEME
TIME_SYSTEM    = UTC
MEAN_ELEMENT_THEORY = SGP/SGP4

EPOCH          = 2025-12-06T06:00:02.000160
MEAN_MOTION    = 15.74173375
ECCENTRICITY   = .00009107
INCLINATION    = 53.1580
RA_OF_ASC_NODE = 218.8203
ARG_OF_PERICENTER = 79.7042
MEAN_ANOMALY   = 231.5206

EPHEMERIS_TYPE = 0
CLASSIFICATION_TYPE = U
NORAD_CAT_ID   = 66621
ELEMENT_SET_NO = 999
REV_AT_EPOCH   = 320
BSTAR          = .76311791E-4
MEAN_MOTION_DOT = .10554E-3
MEAN_MOTION_DDOT = 0

CCSDS_OMM_VERS = 2.0
CREATION_DATE  = 
ORIGINATOR     = 

OBJECT_NAME    = STARLINK-35950
OBJECT_ID      = 2025-271F
CENTER_NAME    = EARTH
REF_FRAME      = TEME
TIME_SYSTEM    = UTC
MEAN_ELEMENT_THEORY = SGP/SGP4

EPOCH          = 2025-12-06T06:00:02.000160
MEAN_MOTION    = 15.74548019
ECCENTRICITY   = .0001388
INCLINATION    = 53.1570
RA_OF_ASC_NODE = 218.9204
ARG_OF_PERICENTER = 76.8579
MEAN_ANOMALY   = 186.9040

EPHEMERIS_TYPE = 0
CLASSIFICATION_TYPE = U
NORAD_CAT_ID   = 66622
ELEMENT_SET_NO = 999
REV_AT_EPOCH   = 320
BSTAR          = -.38844062E-2
MEAN_MOTION_DOT = -.542812E-2
MEAN_MOTION_DDOT = 0

CCSDS_OMM_VERS = 2.0
CREATION_DATE  = 
ORIGINATOR     = 

OBJECT_NAME    = STARLINK-35920
OBJECT_ID      = 2025-271G
CENTER_NAME    = EARTH
REF_FRAME      = TEME
TIME_SYSTEM    = UTC
MEAN_ELEMENT_THEORY = SGP/SGP4

EPOCH          = 2025-12-06T06:00:02.000160
MEAN_MOTION    = 15.74442339
ECCENTRICITY   = .00011144
INCLINATION    = 53.1572
RA_OF_ASC_NODE = 218.9123
ARG_OF_PERICENTER = 99.6513
MEAN_ANOMALY   = 167.9956

EPHEMERIS_TYPE = 0
CLASSIFICATION_TYPE = U
NORAD_CAT_ID   = 66623
ELEMENT_SET_NO = 999
REV_AT_EPOCH   = 320
BSTAR          = -.34620091E-2
MEAN_MOTION_DOT = -.484869E-2
MEAN_MOTION_DDOT = 0

CCSDS_OMM_VERS = 2.0
CREATION_DATE  = 
ORIGINATOR     = 

OBJECT_NAME    = STARLINK-35927
OBJECT_ID      = 2025-271H
CENTER_NAME    = EARTH
REF_FRAME      = TEME
TIME_SYSTEM    = UTC
MEAN_ELEMENT_THEORY = SGP/SGP4

EPOCH          = 2025-12-06T06:00:02.000160
MEAN_MOTION    = 15.74494334
ECCENTRICITY   = .00007111
INCLINATION    = 53.1572
RA_OF_ASC_NODE = 218.9163
ARG_OF_PERICENTER = 85.1074
MEAN_ANOMALY   = 180.5982

EPHEMERIS_TYPE = 0
CLASSIFICATION_TYPE = U
NORAD_CAT_ID   = 66624
ELEMENT_SET_NO = 999
REV_AT_EPOCH   = 320
BSTAR          = -.38566133E-2
MEAN_MOTION_DOT = -.53789E-2
MEAN_MOTION_DDOT = 0

CCSDS_OMM_VERS = 2.0
CREATION_DATE  = 
ORIGINATOR     = 

OBJECT_NAME    = STARLINK-35929
OBJECT_ID      = 2025-271J
CENTER_NAME    = EARTH
REF_FRAME      = TEME
TIME_SYSTEM    = UTC
MEAN_ELEMENT_THEORY = SGP/SGP4

EPOCH          = 2025-12-06T06:00:02.000160
MEAN_MOTION    = 15.74339965
ECCENTRICITY   = .00010807
INCLINATION    = 53.1573
RA_OF_ASC_NODE = 218.9083
ARG_OF_PERICENTER = 82.4812
MEAN_ANOMALY   = 187.1396

EPHEMERIS_TYPE = 0
CLASSIFICATION_TYPE = U
NORAD_CAT_ID   = 66625
ELEMENT_SET_NO = 999
REV_AT_EPOCH   = 320
BSTAR          = -.17581592E-2
MEAN_MOTION_DOT = -.25221E-2
MEAN_MOTION_DDOT = 0

