STARLINK-36040          
1 66614U 25270AC  25340.25002315 -.01890086  00000+0 -17262-1 0  9993
2 66614  42.9990 230.9454 0001775 274.1999  98.5210 15.69880644  3195
STARLINK-35988          
1 66615U 25270AD  25340.25002315 -.01889976  00000+0 -17259-1 0  9996
2 66615  42.9989 230.9503 0001817 270.3295 100.4703 15.69882937  3190
STARLINK-35391          
1 66616U 25270AE  25340.25002315 -.01894920  00000+0 -17308-1 0  9997
2 66616  42.9989 230.9411 0001710 269.9180 104.7144 15.69886762  3464
STARLINK-35940          
1 66617U 25271A   25340.25002315 -.01068584  00000+0 -78239-2 0  9999
2 66617  53.1574 218.9415 0001548  87.2450 166.6020 15.75024961  3203
STARLINK-35970          
1 66618U 25271B   25340.25002315  .00172589  00000+0  11629-2 0  9998
2 66618  53.1581 218.8283 0001035  55.0097 252.6259 15.74104869  3200
STARLINK-35951          
1 66619U 25271C   25340.25002315 -.00713886  00000+0 -51831-2 0  9991
2 66619  53.1572 218.9244 0000821  82.3394 179.4178 15.74687643  3206
STARLINK-35936          
1 66620U 25271D   25340.25002315 -.01024955  00000+0 -74927-2 0  9997
2 66620  53.1575 218.9373 0001198  82.1952 173.6248 15.74961168  3201
STARLINK-35847          
1 66621U 25271E   25340.25002315  .00010554  00000+0  76312-4 0  9997
2 66621  53.1580 218.8203 0000910  79.7042 231.5206 15.74173375  3205
STARLINK-35950          
1 66622U 25271F   25340.25002315 -.00542812  00000+0 -38844-2 0  9993
2 66622  53.1570 218.9204 0001388  76.8579 186.9040 15.74548019  3200
STARLINK-35920          
1 66623U 25271G   25340.25002315 -.00484869  00000+0 -34620-2 0  9999
2 66623  53.1572 218.9123 0001114  99.6513 167.9956 15.74442339  3204
STARLINK-35927          
1 66624U 25271H   25340.25002315 -.00537890  00000+0 -38566-2 0  9996
2 66624  53.1572 218.9163 0000711  85.1074 180.5982 15.74494334  3205
STARLINK-35929          
1 66625U 25271J   25340.25002315 -.00252210  00000+0 -17582-2 0  9992
2 66625  53.1573 218.9083 0001080  82.4812 187.1396 15.74339965  3208
